$$SOE
2460154.500000000, A.D. 2023-Jul-29 00:00:00.0000, -1.437775253426265E+08, -2.406741403044793E+08, 2.597394337220740E+07,
2460161.500000000, A.D. 2023-Aug-05 00:00:00.0000, -1.311286718418141E+08, -2.468656574526783E+08, 2.608631003657256E+07,
2460168.500000000, A.D. 2023-Aug-12 00:00:00.0000, -1.181923005925938E+08, -2.525157168477390E+08, 2.614146255501990E+07,
2460175.500000000, A.D. 2023-Aug-19 00:00:00.0000, -1.049947942393982E+08, -2.576076818668930E+08, 2.613884034539732E+07,
2460182.500000000, A.D. 2023-Aug-26 00:00:00.0000, -9.156376573978350E+07, -2.621264942438402E+08, 2.607806289102110E+07,
2460189.500000000, A.D. 2023-Sep-02 00:00:00.0000, -7.792793709144872E+07, -2.660587911977659E+08, 2.595893588133936E+07,
2460196.500000000, A.D. 2023-Sep-09 00:00:00.0000, -6.411700439737186E+07, -2.693930107763319E+08, 2.578145583456653E+07,
2460203.500000000, A.D. 2023-Sep-16 00:00:00.0000, -5.016149056154553E+07, -2.721194835801971E+08, 2.554581306690255E+07,
2460210.500000000, A.D. 2023-Sep-23 00:00:00.0000, -3.609258696058240E+07, -2.742305089054494E+08, 2.525239290680179E+07,
2460217.500000000, A.D. 2023-Sep-30 00:00:00.0000, -2.194198645633911E+07, -2.757204127057256E+08, 2.490177522830988E+07,
2460224.500000000, A.D. 2023-Oct-07 00:00:00.0000, -7.741712343549328E+06, -2.765855868233536E+08, 2.449473245498876E+07,
2460231.500000000, A.D. 2023-Oct-14 00:00:00.0000, 6.476055412613115E+06, -2.768245120625511E+08, 2.403222568419831E+07,
2460238.500000000, A.D. 2023-Oct-21 00:00:00.0000, 2.067915739088848E+07, -2.764377631462379E+08, 2.351539882006663E+07,
2460245.500000000, A.D. 2023-Oct-28 00:00:00.0000, 3.483563144350627E+07, -2.754279933314556E+08, 2.294557111981297E+07,
2460252.500000000, A.D. 2023-Nov-04 00:00:00.0000, 4.891388522476141E+07, -2.737998998719090E+08, 2.232422832629271E+07,
2460259.500000000, A.D. 2023-Nov-11 00:00:00.0000, 6.288286234409687E+07, -2.715601717139649E+08, 2.165301247089554E+07,
2460266.500000000, A.D. 2023-Nov-18 00:00:00.0000, 7.671220018549778E+07, -2.687174206163865E+08, 2.093371049450484E+07,
2460273.500000000, A.D. 2023-Nov-25 00:00:00.0000, 9.037237751590540E+07, -2.652820970936196E+08, 2.016824187223659E+07,
2460280.500000000, A.D. 2023-Dec-02 00:00:00.0000, 1.038348502351465E+08, -2.612663928620937E+08, 1.935864544044326E+07,
2460287.500000000, A.D. 2023-Dec-09 00:00:00.0000, 1.170721739790005E+08, -2.566841317123308E+08, 1.850706562353021E+07,
2460294.500000000, A.D. 2023-Dec-16 00:00:00.0000, 1.300581128216348E+08, -2.515506507990524E+08, 1.761573824771003E+07,
2460301.500000000, A.D. 2023-Dec-23 00:00:00.0000, 1.427677337120525E+08, -2.458826737423593E+08, 1.668697617373638E+07,
2460308.500000000, A.D. 2023-Dec-30 00:00:00.0000, 1.551774849150567E+08, -2.396981765826371E+08, 1.572315515365265E+07,
2460315.500000000, A.D. 2024-Jan-06 00:00:00.0000, 1.672652566070176E+08, -2.330162509966778E+08, 1.472670006193101E+07,
2460322.500000000, A.D. 2024-Jan-13 00:00:00.0000, 1.790104270140245E+08, -2.258569685391834E+08, 1.370007122546728E+07,
2460329.500000000, A.D. 2024-Jan-20 00:00:00.0000, 1.903938957931996E+08, -2.182412446603127E+08, 1.264575113689773E+07,
2460336.500000000, A.D. 2024-Jan-27 00:00:00.0000, 2.013981033276608E+08, -2.101907035256684E+08, 1.156623191420818E+07,
2460343.500000000, A.D. 2024-Feb-03 00:00:00.0000, 2.120070363883332E+08, -2.017275460803015E+08, 1.046400356921213E+07,
2460350.500000000, A.D. 2024-Feb-10 00:00:00.0000, 2.222062214656766E+08, -1.928744229398068E+08, 9.341543113884553E+06,
2460357.500000000, A.D. 2024-Feb-17 00:00:00.0000, 2.319827070411504E+08, -1.836543131851288E+08, 8.201304549065955E+06,
2460364.500000000, A.D. 2024-Feb-24 00:00:00.0000, 2.413250360329222E+08, -1.740904099235983E+08, 7.045709769618601E+06,
2460371.500000000, A.D. 2024-Mar-02 00:00:00.0000, 2.502232096746907E+08, -1.642060133237538E+08, 5.877140397674970E+06,
2460378.500000000, A.D. 2024-Mar-09 00:00:00.0000, 2.586686441954293E+08, -1.540244316666128E+08, 4.697930525551833E+06,
2460385.500000000, A.D. 2024-Mar-16 00:00:00.0000, 2.666541219042259E+08, -1.435688905148934E+08, 3.510360333591230E+06,
2460392.500000000, A.D. 2024-Mar-23 00:00:00.0000, 2.741737377478458E+08, -1.328624490369565E+08, 2.316650657816172E+06,
2460399.500000000, A.D. 2024-Mar-30 00:00:00.0000, 2.812228402016338E+08, -1.219279235270593E+08, 1.118958674479827E+06,
2460406.500000000, A.D. 2024-Apr-06 00:00:00.0000, 2.877979677560193E+08, -1.107878213766053E+08, -8.062564444092661E+04,
2460413.500000000, A.D. 2024-Apr-13 00:00:00.0000, 2.938967854619156E+08, -9.946428442984921E+07, -1.280082616118923E+06,
2460420.500000000, A.D. 2024-Apr-20 00:00:00.0000, 2.995180214126927E+08, -8.797903872584985E+07, -2.477465222512435E+06,
2460427.500000000, A.D. 2024-Apr-27 00:00:00.0000, 3.046614023971660E+08, -7.635335080124477E+07, -3.670900740604371E+06,
2460434.500000000, A.D. 2024-May-04 00:00:00.0000, 3.093275894815511E+08, -6.460799082987370E+07, -4.858591749911390E+06,
2460441.500000000, A.D. 2024-May-11 00:00:00.0000, 3.135181143383285E+08, -5.276320225063546E+07, -6.038816604810555E+06,
2460448.500000000, A.D. 2024-May-18 00:00:00.0000, 3.172353168879973E+08, -4.083867739492948E+07, -7.209929434889425E+06,
2460455.500000000, A.D. 2024-May-25 00:00:00.0000, 3.204822846726851E+08, -2.885353864132600E+07, -8.370359732557196E+06,
2460462.500000000, A.D. 2024-Jun-01 00:00:00.0000, 3.232627943371755E+08, -1.682632467155651E+07, -9.518611592163863E+06,
2460469.500000000, A.D. 2024-Jun-08 00:00:00.0000, 3.255812557085525E+08, -4.774981374079735E+06, -1.065326267617088E+07,
2460476.500000000, A.D. 2024-Jun-15 00:00:00.0000, 3.274426590527459E+08, 7.283143615708998E+06, -1.177296294774956E+07,
2460483.500000000, A.D. 2024-Jun-22 00:00:00.0000, 3.288525246330860E+08, 1.933130436696944E+07, -1.287643302402428E+07,
2460490.500000000, A.D. 2024-Jun-29 00:00:00.0000, 3.298168525450640E+08, 3.135335670051393E+07, -1.396246214319835E+07,
2460497.500000000, A.D. 2024-Jul-06 00:00:00.0000, 3.303420755188262E+08, 4.333375275184559E+07, -1.502990622677736E+07,
2460504.500000000, A.D. 2024-Jul-13 00:00:00.0000, 3.304350166408070E+08, 5.525753324382705E+07, -1.607768601754329E+07,
2460511.500000000, A.D. 2024-Jul-20 00:00:00.0000, 3.301028499864820E+08, 6.711031896225142E+07, -1.710478504606977E+07,
2460518.500000000, A.D. 2024-Jul-27 00:00:00.0000, 3.293530634645907E+08, 7.887830078963672E+07, -1.811024746983841E+07,
2460525.500000000, A.D. 2024-Aug-03 00:00:00.0000, 3.281934240815398E+08, 9.054822820845661E+07, -1.909317586360270E+07,
2460532.500000000, A.D. 2024-Aug-10 00:00:00.0000, 3.266319457108791E+08, 1.021073965286746E+08, -2.005272899674814E+07,
2460539.500000000, A.D. 2024-Aug-17 00:00:00.0000, 3.246768593217340E+08, 1.135436330952019E+08, -2.098811961774948E+07,
2460546.500000000, A.D. 2024-Aug-24 00:00:00.0000, 3.223365855916995E+08, 1.248452826629736E+08, -2.189861226521865E+07,
2460553.500000000, A.D. 2024-Aug-31 00:00:00.0000, 3.196197099121019E+08, 1.360011920654535E+08, -2.278352113419101E+07,
2460560.500000000, A.D. 2024-Sep-07 00:00:00.0000, 3.165349600401536E+08, 1.470006944673344E+08, -2.364220803213920E+07,
2460567.500000000, A.D. 2024-Sep-14 00:00:00.0000, 3.130911863658506E+08, 1.578335943390498E+08, -2.447408036034682E+07,
2460574.500000000, A.D. 2024-Sep-21 00:00:00.0000, 3.092973426433477E+08, 1.684901536945325E+08, -2.527858890735010E+07,
2460581.500000000, A.D. 2024-Sep-28 00:00:00.0000, 3.051624665911368E+08, 1.789610764819940E+08, -2.605522567965490E+07,
2460588.500000000, A.D. 2024-Oct-05 00:00:00.0000, 3.006956639261247E+08, 1.892374912222330E+08, -2.680352211216319E+07,
2460595.500000000, A.D. 2024-Oct-12 00:00:00.0000, 2.959060953591385E+08, 1.993109349515659E+08, -2.752304738522901E+07,
2460602.500000000, A.D. 2024-Oct-19 00:00:00.0000, 2.908029646933645E+08, 2.091733382667340E+08, -2.821340671193292E+07,
2460609.500000000, A.D. 2024-Oct-26 00:00:00.0000, 2.853955078917222E+08, 2.188170107273209E+08, -2.887423965933559E+07,
2460616.500000000, A.D. 2024-Nov-02 00:00:00.0000, 2.796929832722176E+08, 2.282346265138370E+08, -2.950521853972299E+07,
2460623.500000000, A.D. 2024-Nov-09 00:00:00.0000, 2.737046628327839E+08, 2.374192104009534E+08, -3.010604687851563E+07,
2460630.500000000, A.D. 2024-Nov-16 00:00:00.0000, 2.674398246409515E+08, 2.463641240794671E+08, -3.067645796037234E+07,
2460637.500000000, A.D. 2024-Nov-23 00:00:00.0000, 2.609077462509266E+08, 2.550630528062014E+08, -3.121621346116684E+07,
2460644.500000000, A.D. 2024-Nov-30 00:00:00.0000, 2.541176992797399E+08, 2.635099923643392E+08, -3.172510218812388E+07,
2460651.500000000, A.D. 2024-Dec-07 00:00:00.0000, 2.470789454937699E+08, 2.716992367743264E+08, -3.220293893238397E+07,
2460658.500000000, A.D. 2024-Dec-14 00:00:00.0000, 2.398007336533815E+08, 2.796253679886533E+08, -3.264956327049626E+07,
2460665.500000000, A.D. 2024-Dec-21 00:00:00.0000, 2.322922947317393E+08, 2.872832463337164E+08, -3.306483820144206E+07,
2460672.500000000, A.D. 2024-Dec-28 00:00:00.0000, 2.245628374240675E+08, 2.946679987391791E+08, -3.344864904122074E+07,
2460679.500000000, A.D. 2025-Jan-04 00:00:00.0000, 2.166215464960976E+08, 3.017750071282856E+08, -3.380090261801283E+07,
2460686.500000000, A.D. 2025-Jan-11 00:00:00.0000, 2.084775820954210E+08, 3.085998986176598E+08, -3.412152646177290E+07,
2460693.500000000, A.D. 2025-Jan-18 00:00:00.0000, 2.001400790531593E+08, 3.151385366005849E+08, -3.441046797514760E+07,
2460700.500000000, A.D. 2025-Jan-25 00:00:00.0000, 1.916181463696087E+08, 3.213870122374523E+08, -3.466769364373355E+07,
2460707.500000000, A.D. 2025-Feb-01 00:00:00.0000, 1.829208670315807E+08, 3.273416363240972E+08, -3.489318830371720E+07,
2460714.500000000, A.D. 2025-Feb-08 00:00:00.0000, 1.740572981853507E+08, 3.329989315569816E+08, -3.508695446965103E+07,
2460721.500000000, A.D. 2025-Feb-15 00:00:00.0000, 1.650364716634367E+08, 3.383556251705298E+08, -3.524901172561067E+07,
$$EOE